{"type": "FeatureCollection", "features": [ {"type": "Feature", "properties": {"norad_id": 37216, "name": "COSMO-SKYMED 4", "group": "resource", "lat": 61.500236900590124, "lon": 0.8398046963831667, "alt_km": 615.7490078101509, "timestamp": "2025-12-10T16:57:11.291511+00:00", "meta": {"OBJECT_NAME": "COSMO-SKYMED 4", "OBJECT_ID": "2010-060A", "EPOCH": "2025-12-10T11:33:52.513056", "MEAN_MOTION": 14.82165761, "ECCENTRICITY": 0.0001409, "INCLINATION": 97.8806, "RA_OF_ASC_NODE": 165.8389, "ARG_OF_PERICENTER": 79.4702, "MEAN_ANOMALY": 280.6669, "EPHEMERIS_TYPE": 0, "CLASSIFICATION_TYPE": "U", "NORAD_CAT_ID": 37216, "ELEMENT_SET_NO": 999, "REV_AT_EPOCH": 81661, "BSTAR": 0.00015405, "MEAN_MOTION_DOT": 1.175e-05, "MEAN_MOTION_DDOT": 0}, "tle": {"line1": "1 37216U 10060A   25344.48185779  .00001175  00000+0  15405-3 0  9994", "line2": "2 37216  97.8806 165.8389 0001409  79.4702 280.6669 14.82165761816612"}}, "geometry": {"type": "Point", "coordinates": [0.8398046963831667, 61.500236900590124]}}, {"type": "Feature", "properties": {"norad_id": 37387, "name": "RESOURCESAT-2", "group": "resource", "lat": 14.677064088189008, "lon": -129.41068237176458, "alt_km": 822.9355416684384, "timestamp": "2025-12-10T16:57:11.291521+00:00", "meta": {"OBJECT_NAME": "RESOURCESAT-2", "OBJECT_ID": "2011-015A", "EPOCH": "2025-12-10T11:06:44.311968", "MEAN_MOTION": 14.21595809, "ECCENTRICITY": 0.0006539, "INCLINATION": 98.788, "RA_OF_ASC_NODE": 48.025, "ARG_OF_PERICENTER": 48.4936, "MEAN_ANOMALY": 311.6801, "EPHEMERIS_TYPE": 0, "CLASSIFICATION_TYPE": "U", "NORAD_CAT_ID": 37387, "ELEMENT_SET_NO": 999, "REV_AT_EPOCH": 75936, "BSTAR": 0.00012793, "MEAN_MOTION_DOT": 2.36e-06, "MEAN_MOTION_DDOT": 0}, "tle": {"line1": "1 37387U 11015A   25344.46301287  .00000236  00000+0  12793-3 0  9990", "line2": "2 37387  98.7880  48.0250 0006539  48.4936 311.6801 14.21595809759360"}}, "geometry": {"type": "Point", "coordinates": [-129.41068237176458, 14.677064088189008]}}, {"type": "Feature", "properties": {"norad_id": 37781, "name": "HAIYANG-2A", "group": "resource", "lat": 14.318982369203871, "lon": 168.07865811046054, "alt_km": 968.6263548182887, "timestamp": "2025-12-10T16:57:11.291531+00:00", "meta": {"OBJECT_NAME": "HAIYANG-2A", "OBJECT_ID": "2011-043A", "EPOCH": "2025-12-10T10:55:45.440256", "MEAN_MOTION": 13.78835644, "ECCENTRICITY": 0.0001678, "INCLINATION": 99.3377, "RA_OF_ASC_NODE": 345.4246, "ARG_OF_PERICENTER": 85.211, "MEAN_ANOMALY": 274.9233, "EPHEMERIS_TYPE": 0, "CLASSIFICATION_TYPE": "U", "NORAD_CAT_ID": 37781, "ELEMENT_SET_NO": 999, "REV_AT_EPOCH": 72067, "BSTAR": 0.00030158, "MEAN_MOTION_DOT": 2.63e-06, "MEAN_MOTION_DDOT": 0}, "tle": {"line1": "1 37781U 11043A   25344.45538704  .00000263  00000+0  30158-3 0  9999", "line2": "2 37781  99.3377 345.4246 0001678  85.2110 274.9233 13.78835644720674"}}, "geometry": {"type": "Point", "coordinates": [168.07865811046054, 14.318982369203871]}}, {"type": "Feature", "properties": {"norad_id": 37791, "name": "RASAT", "group": "resource", "lat": -9.190877965118654, "lon": 75.30890436992799, "alt_km": 669.1881913376437, "timestamp": "2025-12-10T16:57:11.291541+00:00", "meta": {"OBJECT_NAME": "RASAT", "OBJECT_ID": "2011-044D", "EPOCH": "2025-12-10T12:20:37.271328", "MEAN_MOTION": 14.6790589, "ECCENTRICITY": 0.0021942, "INCLINATION": 98.0651, "RA_OF_ASC_NODE": 73.8051, "ARG_OF_PERICENTER": 71.5635, "MEAN_ANOMALY": 345.1941, "EPHEMERIS_TYPE": 0, "CLASSIFICATION_TYPE": "U", "NORAD_CAT_ID": 37791, "ELEMENT_SET_NO": 999, "REV_AT_EPOCH": 76550, "BSTAR": 0.00024658, "MEAN_MOTION_DOT": 1.366e-05, "MEAN_MOTION_DDOT": 0}, "tle": {"line1": "1 37791U 11044D   25344.51432027  .00001366  00000+0  24658-3 0  9992", "line2": "2 37791  98.0651  73.8051 0021942  71.5635 345.1941 14.67905890765506"}}, "geometry": {"type": "Point", "coordinates": [75.30890436992799, -9.190877965118654]}}, {"type": "Feature", "properties": {"norad_id": 37841, "name": "SRMSAT", "group": "resource", "lat": 6.822420274501442, "lon": -78.97612822204776, "alt_km": 856.5346027476753, "timestamp": "2025-12-10T16:57:11.291551+00:00", "meta": {"OBJECT_NAME": "SRMSAT", "OBJECT_ID": "2011-058D", "EPOCH": "2025-12-10T09:33:52.501248", "MEAN_MOTION": 14.11510269, "ECCENTRICITY": 0.0011715, "INCLINATION": 19.9705, "RA_OF_ASC_NODE": 122.1206, "ARG_OF_PERICENTER": 287.5005, "MEAN_ANOMALY": 104.46, "EPHEMERIS_TYPE": 0, "CLASSIFICATION_TYPE": "U", "NORAD_CAT_ID": 37841, "ELEMENT_SET_NO": 999, "REV_AT_EPOCH": 73111, "BSTAR": 0.00014098, "MEAN_MOTION_DOT": 5.25e-06, "MEAN_MOTION_DDOT": 0}, "tle": {"line1": "1 37841U 11058D   25344.39852432  .00000525  00000+0  14098-3 0  9998", "line2": "2 37841  19.9705 122.1206 0011715 287.5005 104.4600 14.11510269731110"}}, "geometry": {"type": "Point", "coordinates": [-78.97612822204776, 6.822420274501442]}}, {"type": "Feature", "properties": {"norad_id": 38012, "name": "PLEIADES 1A", "group": "resource", "lat": -34.240655024649804, "lon": -128.11391690466553, "alt_km": 704.7941642075521, "timestamp": "2025-12-10T16:57:11.291561+00:00", "meta": {"OBJECT_NAME": "PLEIADES 1A", "OBJECT_ID": "2011-076F", "EPOCH": "2025-12-10T11:17:20.271264", "MEAN_MOTION": 14.58558632, "ECCENTRICITY": 0.0001348, "INCLINATION": 98.1823, "RA_OF_ASC_NODE": 57.2738, "ARG_OF_PERICENTER": 73.1692, "MEAN_ANOMALY": 342.8653, "EPHEMERIS_TYPE": 0, "CLASSIFICATION_TYPE": "U", "NORAD_CAT_ID": 38012, "ELEMENT_SET_NO": 999, "REV_AT_EPOCH": 74448, "BSTAR": 0.00019309, "MEAN_MOTION_DOT": 8.52e-06, "MEAN_MOTION_DDOT": 0}, "tle": {"line1": "1 38012U 11076F   25344.47037351  .00000852  00000+0  19309-3 0  9996", "line2": "2 38012  98.1823  57.2738 0001348  73.1692 342.8653 14.58558632744488"}}, "geometry": {"type": "Point", "coordinates": [-128.11391690466553, -34.240655024649804]}}, {"type": "Feature", "properties": {"norad_id": 38038, "name": "ZIYUAN 1-02C (ZY 1-02C)", "group": "resource", "lat": -81.18608958419621, "lon": 123.8508545299343, "alt_km": 775.5918649413688, "timestamp": "2025-12-10T16:57:11.291570+00:00", "meta": {"OBJECT_NAME": "ZIYUAN 1-02C (ZY 1-02C)", "OBJECT_ID": "2011-079A", "EPOCH": "2025-12-10T10:43:43.248576", "MEAN_MOTION": 14.38008479, "ECCENTRICITY": 0.0007035, "INCLINATION": 98.4332, "RA_OF_ASC_NODE": 50.5028, "ARG_OF_PERICENTER": 144.2197, "MEAN_ANOMALY": 226.4296, "EPHEMERIS_TYPE": 0, "CLASSIFICATION_TYPE": "U", "NORAD_CAT_ID": 38038, "ELEMENT_SET_NO": 999, "REV_AT_EPOCH": 73208, "BSTAR": 0.00031234, "MEAN_MOTION_DOT": 9.02e-06, "MEAN_MOTION_DDOT": 0}, "tle": {"line1": "1 38038U 11079A   25344.44702834  .00000902  00000+0  31234-3 0  9996", "line2": "2 38038  98.4332  50.5028 0007035 144.2197 226.4296 14.38008479732081"}}, "geometry": {"type": "Point", "coordinates": [123.8508545299343, -81.18608958419621]}}, {"type": "Feature", "properties": {"norad_id": 38046, "name": "ZIYUAN 3-1 (ZY 3-1)", "group": "resource", "lat": -15.23185761274238, "lon": -130.8893258714955, "alt_km": 370.34505833460753, "timestamp": "2025-12-10T16:57:11.291581+00:00", "meta": {"OBJECT_NAME": "ZIYUAN 3-1 (ZY 3-1)", "OBJECT_ID": "2012-001A", "EPOCH": "2025-12-10T08:27:55.696608", "MEAN_MOTION": 15.68079531, "ECCENTRICITY": 0.0001868, "INCLINATION": 97.1753, "RA_OF_ASC_NODE": 50.7148, "ARG_OF_PERICENTER": 4.8798, "MEAN_ANOMALY": 355.2482, "EPHEMERIS_TYPE": 0, "CLASSIFICATION_TYPE": "U", "NORAD_CAT_ID": 38046, "ELEMENT_SET_NO": 999, "REV_AT_EPOCH": 77459, "BSTAR": 0.00087323, "MEAN_MOTION_DOT": 0.00097709, "MEAN_MOTION_DDOT": 0}, "tle": {"line1": "1 38046U 12001A   25344.35272797  .00097709  00000+0  87323-3 0  9992", "line2": "2 38046  97.1753  50.7148 0001868   4.8798 355.2482 15.68079531774595"}}, "geometry": {"type": "Point", "coordinates": [-130.8893258714955, -15.23185761274238]}}, {"type": "Feature", "properties": {"norad_id": 38338, "name": "ARIRANG-3 (KOMPSAT-3)", "group": "resource", "lat": 81.59628539774833, "lon": -143.46211715658944, "alt_km": 681.0976525496535, "timestamp": "2025-12-10T16:57:11.291591+00:00", "meta": {"OBJECT_NAME": "ARIRANG-3 (KOMPSAT-3)", "OBJECT_ID": "2012-025B", "EPOCH": "2025-12-10T11:37:09.595776", "MEAN_MOTION": 14.61708069, "ECCENTRICITY": 0.0005518, "INCLINATION": 98.3319, "RA_OF_ASC_NODE": 299.0566, "ARG_OF_PERICENTER": 346.2912, "MEAN_ANOMALY": 13.8138, "EPHEMERIS_TYPE": 0, "CLASSIFICATION_TYPE": "U", "NORAD_CAT_ID": 38338, "ELEMENT_SET_NO": 999, "REV_AT_EPOCH": 72377, "BSTAR": 0.00020986, "MEAN_MOTION_DOT": 9.97e-06, "MEAN_MOTION_DDOT": 0}, "tle": {"line1": "1 38338U 12025B   25344.48413884  .00000997  00000+0  20986-3 0  9995", "line2": "2 38338  98.3319 299.0566 0005518 346.2912  13.8138 14.61708069723775"}}, "geometry": {"type": "Point", "coordinates": [-143.46211715658944, 81.59628539774833]}}, {"type": "Feature", "properties": {"norad_id": 38709, "name": "EXACTVIEW-1 (ADS-1B)", "group": "resource", "lat": -4.459587159407747, "lon": 93.75893418588183, "alt_km": 804.5457665993326, "timestamp": "2025-12-10T16:57:11.291601+00:00", "meta": {"OBJECT_NAME": "EXACTVIEW-1 (ADS-1B)", "OBJECT_ID": "2012-039C", "EPOCH": "2025-12-10T06:51:45.471744", "MEAN_MOTION": 14.24906576, "ECCENTRICITY": 0.0010796, "INCLINATION": 98.9635, "RA_OF_ASC_NODE": 92.6245, "ARG_OF_PERICENTER": 1.3591, "MEAN_ANOMALY": 358.7615, "EPHEMERIS_TYPE": 0, "CLASSIFICATION_TYPE": "U", "NORAD_CAT_ID": 38709, "ELEMENT_SET_NO": 999, "REV_AT_EPOCH": 69580, "BSTAR": 0.00014505, "MEAN_MOTION_DOT": 2.93e-06, "MEAN_MOTION_DDOT": 0}, "tle": {"line1": "1 38709U 12039C   25344.28594296  .00000293  00000+0  14505-3 0  9996", "line2": "2 38709  98.9635  92.6245 0010796   1.3591 358.7615 14.24906576695806"}}, "geometry": {"type": "Point", "coordinates": [93.75893418588183, -4.459587159407747]}}]}